[Satellite]
VERSION=1.1
NAME=MOLNIYA 1-62
NICKNAME=MOLNIYA 1-62
TLE1=1 15214U 84089A   18020.79030180  .00001215  00000-0  81277-2 0  9997
TLE2=2 15214  62.8699 246.2465 7174471 263.4408  18.0051  1.97943657212418
